NORAD_CAT_ID,OBJECT_NAME,OBJECT_TYPE,EPOCH,MEAN_MOTION,ECCENTRICITY,INCLINATION,RA_OF_ASC_NODE,ARG_OF_PERICENTER,MEAN_ANOMALY,BSTAR,MEAN_MOTION_DOT,MEAN_MOTION_DDOT,TLE_LINE0,TLE_LINE1,TLE_LINE2,SEMIMAJOR_AXIS,PERIOD,APOGEE,PERIGEE,DECAYED
50179.0,STARLINK-3283,PAYLOAD,2023-03-23 15:50:34,15.08837759,0.0001331,53.2155,66.536,103.1229,256.9912,0.00026044,3.859e-05,0.0,0 STARLINK-3283,1 50179U 21125Z   23082.66011869  .00003859  00000-0  26044-3 0  9999,2 50179  53.2155  66.5360 0001331 103.1229 256.9912 15.08837759 72766,6917.887,95.438,540.673,538.831,0.0
50179.0,STARLINK-3283,PAYLOAD,2023-03-24 04:33:38,15.08888394,0.0001474,53.2158,64.1574,119.4987,240.6152,0.0018197,0.0002883,0.0,0 STARLINK-3283,1 50179U 21125Z   23083.19003019  .00028830  00000-0  18197-2 0  9991,2 50179  53.2158  64.1574 0001474 119.4987 240.6152 15.08888394 72845,6917.732,95.434,540.617,538.578,0.0
50179.0,STARLINK-3283,PAYLOAD,2023-03-24 10:55:10,15.08898873,0.000124,53.2148,62.9674,104.8095,255.3034,0.0031016,0.00049501,0.0,0 STARLINK-3283,1 50179U 21125Z   23083.45498625  .00049501  00000-0  31016-2 0  9994,2 50179  53.2148  62.9674 0001240 104.8095 255.3034 15.08898873 73374,6917.7,95.434,540.423,538.708,0.0
50179.0,STARLINK-3283,PAYLOAD,2023-03-24 15:41:20,15.08853754,8.75e-05,53.2154,62.0763,104.4099,255.6991,0.00018698,2.69e-05,0.0,0 STARLINK-3283,1 50179U 21125Z   23083.65370856  .00002690  00000-0  18698-3 0  9991,2 50179  53.2154  62.0763 0000875 104.4099 255.6991 15.08853754 72917,6917.838,95.437,540.309,539.098,0.0
50179.0,STARLINK-3283,PAYLOAD,2023-03-25 15:32:08,15.08837551,0.000217,53.2163,57.6172,71.7539,288.3689,0.0010527,0.00016504,0.0,0 STARLINK-3283,1 50179U 21125Z   23084.64731780  .00016504  00000-0  10527-2 0  9999,2 50179  53.2163  57.6172 0002170  71.7539 288.3689 15.08837551 73067,6917.888,95.438,541.254,538.252,0.0
50179.0,STARLINK-3283,PAYLOAD,2023-03-26 04:15:13,15.08835962,0.0001369,53.2154,55.2379,71.157,288.9571,0.0018101,0.00028634,0.0,0 STARLINK-3283,1 50179U 21125Z   23085.17724151  .00028634  00000-0  18101-2 0  9995,2 50179  53.2154  55.2379 0001369  71.1570 288.9571 15.08835962 73147,6917.893,95.438,540.705,538.811,0.0
50179.0,STARLINK-3283,PAYLOAD,2023-03-26 07:25:59,15.08847133,0.0001411,53.2154,54.6425,71.4317,288.6829,0.0026473,0.00042104,0.0,0 STARLINK-3283,1 50179U 21125Z   23085.30972194  .00042104  00000-0  26473-2 0  9991,2 50179  53.2154  54.6425 0001411  71.4317 288.6829 15.08847133 73160,6917.859,95.437,540.7,538.747,0.0
50179.0,STARLINK-3283,PAYLOAD,2023-03-27 04:06:00,15.08878573,0.0001299,53.2164,50.7781,68.5783,291.5348,0.0020415,0.00032386,0.0,0 STARLINK-3283,1 50179U 21125Z   23086.17083422  .00032386  00000-0  20415-2 0  9995,2 50179  53.2164  50.7781 0001299  68.5783 291.5348 15.08878573 73296,6917.762,95.435,540.526,538.729,0.0
50179.0,STARLINK-3283,PAYLOAD,2023-03-27 07:16:46,15.08887777,0.00013,53.2163,50.183,67.7158,292.3972,0.0020921,0.00033209,0.0,0 STARLINK-3283,1 50179U 21125Z   23086.30331034  .00033209  00000-0  20921-2 0  9992,2 50179  53.2163  50.1830 0001300  67.7158 292.3972 15.08887777 73809,6917.734,95.435,540.499,538.7,0.0
50179.0,STARLINK-3283,PAYLOAD,2023-03-27 21:35:14,15.08854083,8.45e-05,53.2166,47.5071,72.2339,287.8745,0.0010262,0.00016088,0.0,0 STARLINK-3283,1 50179U 21125Z   23086.89947302  .00016088  00000-0  10262-2 0  9990,2 50179  53.2166  47.5071 0000845  72.2339 287.8745 15.08854083 73401,6917.837,95.437,540.287,539.118,0.0
50179.0,STARLINK-3283,PAYLOAD,2023-03-28 07:07:33,15.08843454,9.93e-05,53.217,45.721,88.4731,271.6375,0.0004276,6.525e-05,0.0,0 STARLINK-3283,1 50179U 21125Z   23087.29691491  .00006525  00000-0  42760-3 0  9994,2 50179  53.2170  45.7210 0000993  88.4731 271.6375 15.08843454 73466,6917.87,95.437,540.422,539.048,0.0
50179.0,STARLINK-3283,PAYLOAD,2023-03-29 00:36:48,15.0883902,0.0001089,53.2167,42.4497,94.7987,265.3129,0.00040046,6.091e-05,0.0,0 STARLINK-3283,1 50179U 21125Z   23088.02555924  .00006091  00000-0  40046-3 0  9999,2 50179  53.2167  42.4497 0001089  94.7987 265.3129 15.08839020 73576,6917.883,95.438,540.502,538.995,0.0
50179.0,STARLINK-3283,PAYLOAD,2023-03-29 06:58:20,15.08852016,0.0001212,53.2171,41.2587,98.5137,261.5993,0.00075339,0.00011726,0.0,0 STARLINK-3283,1 50179U 21125Z   23088.29051610  .00011726  00000-0  75339-3 0  9995,2 50179  53.2171  41.2587 0001212  98.5137 261.5993 15.08852016 73617,6917.844,95.437,540.547,538.87,0.0
50179.0,STARLINK-3283,PAYLOAD,2023-03-30 05:13:44,15.0885187,0.0001298,53.2175,37.0968,106.5285,253.585,0.00058577,9.05e-05,0.0,0 STARLINK-3283,1 50179U 21125Z   23089.21787724  .00009050  00000-0  58577-3 0  9992,2 50179  53.2175  37.0968 0001298 106.5285 253.5850 15.08851870 73750,6917.844,95.437,540.607,538.811,0.0
50179.0,STARLINK-3283,PAYLOAD,2023-03-30 13:10:40,15.0884418,0.0001147,53.2171,35.6098,88.572,271.5404,0.00054082,8.331e-05,0.0,0 STARLINK-3283,1 50179U 21125Z   23089.54907955  .00008331  00000-0  54082-3 0  9996,2 50179  53.2171  35.6098 0001147  88.5720 271.5404 15.08844180 73807,6917.868,95.437,540.526,538.939,0.0
50179.0,STARLINK-3283,PAYLOAD,2023-03-31 05:04:31,15.08845877,0.0001056,53.2166,32.6373,103.1354,256.9757,0.00064672,0.00010021,0.0,0 STARLINK-3283,1 50179U 21125Z   23090.21148045  .00010021  00000-0  64672-3 0  9994,2 50179  53.2166  32.6373 0001056 103.1354 256.9757 15.08845877 73903,6917.862,95.437,540.458,538.997,0.0
50179.0,STARLINK-3283,PAYLOAD,2023-03-31 19:23:00,15.08840761,0.0001117,53.2163,29.962,93.7302,266.3818,0.00031251,4.689e-05,0.0,0 STARLINK-3283,1 50179U 21125Z   23090.80764504  .00004689  00000-0  31251-3 0  9993,2 50179  53.2163  29.9620 0001117  93.7302 266.3818 15.08840761 73998,6917.878,95.438,540.516,538.97,0.0
50179.0,STARLINK-3283,PAYLOAD,2023-04-01 04:55:19,15.08844141,0.0001099,53.2171,28.177,88.1848,271.927,0.00017611,2.516e-05,0.0,0 STARLINK-3283,1 50179U 21125Z   23091.20508449  .00002516  00000-0  17611-3 0  9993,2 50179  53.2171  28.1770 0001099  88.1848 271.9270 15.08844141 74548,6917.868,95.437,540.493,538.972,0.0
50179.0,STARLINK-3283,PAYLOAD,2023-04-02 04:46:06,15.08845114,0.000134,53.2175,23.7171,71.8843,288.2296,0.00016534,2.345e-05,0.0,0 STARLINK-3283,1 50179U 21125Z   23092.19868901  .00002345  00000-0  16534-3 0  9997,2 50179  53.2175  23.7171 0001340  71.8843 288.2296 15.08845114 74204,6917.865,95.437,540.657,538.803,0.0
50179.0,STARLINK-3283,PAYLOAD,2023-04-02 19:04:35,15.08840688,0.0001359,53.217,21.0398,80.0722,280.0423,0.00013775,1.905e-05,0.0,0 STARLINK-3283,1 50179U 21125Z   23092.79485173  .00001905  00000-0  13775-3 0  9994,2 50179  53.2170  21.0398 0001359  80.0722 280.0423 15.08840688 74291,6917.878,95.438,540.683,538.803,0.0
50179.0,STARLINK-3283,PAYLOAD,2023-04-03 04:36:53,15.08848552,0.0001173,53.2171,19.2559,84.4601,275.6525,0.00021911,3.202e-05,0.0,0 STARLINK-3283,1 50179U 21125Z   23093.19228628  .00003202  00000-0  21911-3 0  9992,2 50179  53.2171  19.2559 0001173  84.4601 275.6525 15.08848552 74356,6917.854,95.437,540.531,538.908,0.0
50179.0,STARLINK-3283,PAYLOAD,2023-04-03 18:55:22,15.08843453,0.0001183,53.2162,16.5786,100.5812,259.5313,9.0167e-06,-1.44e-06,0.0,0 STARLINK-3283,1 50179U 21125Z   23093.78844980 -.00000144  00000-0  90167-5 0  9996,2 50179  53.2162  16.5786 0001183 100.5812 259.5313 15.08843453 74444,6917.87,95.437,540.553,538.916,0.0
50179.0,STARLINK-3283,PAYLOAD,2023-04-04 04:27:40,15.08851452,0.0001207,53.217,14.7956,84.382,275.731,0.00014861,2.079e-05,0.0,0 STARLINK-3283,1 50179U 21125Z   23094.18588622  .00002079  00000-0  14861-3 0  9992,2 50179  53.2170  14.7956 0001207  84.3820 275.7310 15.08851452 74992,6917.845,95.437,540.545,538.875,0.0
50179.0,STARLINK-3283,PAYLOAD,2023-04-04 21:56:55,15.08840351,0.00014,53.2169,11.5243,83.0551,277.06,5.6918e-05,6.18e-06,0.0,0 STARLINK-3283,1 50179U 21125Z   23094.91453249  .00000618  00000-0  56918-4 0  9996,2 50179  53.2169  11.5243 0001400  83.0551 277.0600 15.08840351 75103,6917.879,95.438,540.713,538.776,0.0
50179.0,STARLINK-3283,PAYLOAD,2023-04-05 02:43:04,15.08845891,0.0001491,53.2177,10.6318,99.9962,260.1199,8.757e-05,1.106e-05,0.0,0 STARLINK-3283,1 50179U 21125Z   23095.11324805  .00001106  00000-0  87570-4 0  9995,2 50179  53.2177  10.6318 0001491  99.9962 260.1199 15.08845891 74645,6917.862,95.437,540.759,538.696,0.0
50179.0,STARLINK-3283,PAYLOAD,2023-04-05 21:47:42,15.08840487,0.0001677,53.2177,7.0637,121.5744,238.5412,-6.2575e-06,-3.88e-06,0.0,0 STARLINK-3283,1 50179U 21125Z   23095.90813045 -.00000388  00000-0 -62575-5 0  9993,2 50179  53.2177   7.0637 0001677 121.5744 238.5412 15.08840487 74761,6917.879,95.438,540.904,538.584,0.0
50179.0,STARLINK-3283,PAYLOAD,2023-04-06 04:09:14,15.08846408,0.0001138,53.2174,5.8757,90.8674,269.2448,0.00011812,1.593e-05,0.0,0 STARLINK-3283,1 50179U 21125Z   23096.17308766  .00001593  00000-0  11812-3 0  9995,2 50179  53.2174   5.8757 0001138  90.8674 269.2448 15.08846408 75297,6917.861,95.437,540.513,538.939,0.0
50179.0,STARLINK-3283,PAYLOAD,2023-04-06 18:27:43,15.08830141,0.0001143,53.218,3.2018,128.9754,231.134,-3.4143e-05,-8.31e-06,0.0,0 STARLINK-3283,1 50179U 21125Z   23096.76925568 -.00000831  00000-0 -34143-4 0  9994,2 50179  53.2180   3.2018 0001143 128.9754 231.1340 15.08830141 74895,6917.911,95.438,540.566,538.985,0.0
50179.0,STARLINK-3283,PAYLOAD,2023-04-07 04:00:01,15.08847429,0.0001024,53.2167,1.4156,109.1222,250.9881,9.5074e-05,1.226e-05,0.0,0 STARLINK-3283,1 50179U 21125Z   23097.16668671  .00001226  00000-0  95074-4 0  9995,2 50179  53.2167   1.4156 0001024 109.1222 250.9881 15.08847429 74955,6917.858,95.437,540.431,539.014,0.0
50179.0,STARLINK-3283,PAYLOAD,2023-04-07 16:43:07,15.08842849,9.13e-05,53.2163,359.0369,112.0557,248.0533,-1.2913e-05,-4.93e-06,0.0,0 STARLINK-3283,1 50179U 21125Z   23097.69661118 -.00000493  00000-0 -12913-4 0  9990,2 50179  53.2163 359.0369 0000913 112.0557 248.0533 15.08842849 75032,6917.872,95.437,540.368,539.105,0.0
